{"type": "FeatureCollection", "features": [ {"type": "Feature", "properties": {"norad_id": 40534, "name": "GPS BIIF-9  (PRN 26)", "group": "gps-ops", "lat": -38.98913760782706, "lon": 174.00715846438575, "alt_km": 20187.162776553818, "timestamp": "2025-12-26T23:26:42.388665+00:00", "meta": {"OBJECT_NAME": "GPS BIIF-9  (PRN 26)", "OBJECT_ID": "2015-013A", "EPOCH": "2025-12-26T13:11:10.214592", "MEAN_MOTION": 2.00561683, "ECCENTRICITY": 0.010755, "INCLINATION": 53.1959, "RA_OF_ASC_NODE": 211.3182, "ARG_OF_PERICENTER": 38.8079, "MEAN_ANOMALY": 322.028, "EPHEMERIS_TYPE": 0, "CLASSIFICATION_TYPE": "U", "NORAD_CAT_ID": 40534, "ELEMENT_SET_NO": 999, "REV_AT_EPOCH": 7836, "BSTAR": 0, "MEAN_MOTION_DOT": 8.8e-07, "MEAN_MOTION_DDOT": 0}, "tle": {"line1": "1 40534U 15013A   25360.54942378  .00000088  00000+0  00000+0 0  9998", "line2": "2 40534  53.1959 211.3182 0107550  38.8079 322.0280  2.00561683 78363"}}, "geometry": {"type": "Point", "coordinates": [174.00715846438575, -38.98913760782706]}}, {"type": "Feature", "properties": {"norad_id": 40730, "name": "GPS BIIF-10 (PRN 08)", "group": "gps-ops", "lat": -10.64614748798082, "lon": 101.9945284445982, "alt_km": 20471.6824515722, "timestamp": "2025-12-26T23:26:42.388677+00:00", "meta": {"OBJECT_NAME": "GPS BIIF-10 (PRN 08)", "OBJECT_ID": "2015-033A", "EPOCH": "2025-12-26T05:05:23.462304", "MEAN_MOTION": 2.00564909, "ECCENTRICITY": 0.0111756, "INCLINATION": 54.1189, "RA_OF_ASC_NODE": 274.2184, "ARG_OF_PERICENTER": 27.1685, "MEAN_ANOMALY": 333.4602, "EPHEMERIS_TYPE": 0, "CLASSIFICATION_TYPE": "U", "NORAD_CAT_ID": 40730, "ELEMENT_SET_NO": 999, "REV_AT_EPOCH": 7652, "BSTAR": 0, "MEAN_MOTION_DOT": -2e-07, "MEAN_MOTION_DDOT": 0}, "tle": {"line1": "1 40730U 15033A   25360.21207711 -.00000020  00000+0  00000+0 0  9994", "line2": "2 40730  54.1189 274.2184 0111756  27.1685 333.4602  2.00564909 76528"}}, "geometry": {"type": "Point", "coordinates": [101.9945284445982, -10.64614748798082]}}, {"type": "Feature", "properties": {"norad_id": 41019, "name": "GPS BIIF-11 (PRN 10)", "group": "gps-ops", "lat": 27.001715979996263, "lon": -161.98315579984975, "alt_km": 20140.581803043828, "timestamp": "2025-12-26T23:26:42.388695+00:00", "meta": {"OBJECT_NAME": "GPS BIIF-11 (PRN 10)", "OBJECT_ID": "2015-062A", "EPOCH": "2025-12-26T06:30:53.631648", "MEAN_MOTION": 2.00567029, "ECCENTRICITY": 0.0111129, "INCLINATION": 56.842, "RA_OF_ASC_NODE": 37.479, "ARG_OF_PERICENTER": 230.2895, "MEAN_ANOMALY": 128.7854, "EPHEMERIS_TYPE": 0, "CLASSIFICATION_TYPE": "U", "NORAD_CAT_ID": 41019, "ELEMENT_SET_NO": 999, "REV_AT_EPOCH": 7436, "BSTAR": 0, "MEAN_MOTION_DOT": -4.9e-07, "MEAN_MOTION_DDOT": 0}, "tle": {"line1": "1 41019U 15062A   25360.27145407 -.00000049  00000+0  00000+0 0  9997", "line2": "2 41019  56.8420  37.4790 0111129 230.2895 128.7854  2.00567029 74362"}}, "geometry": {"type": "Point", "coordinates": [-161.98315579984975, 27.001715979996263]}}, {"type": "Feature", "properties": {"norad_id": 41328, "name": "GPS BIIF-12 (PRN 32)", "group": "gps-ops", "lat": 55.387719416439595, "lon": -176.99143215714946, "alt_km": 20400.43780085401, "timestamp": "2025-12-26T23:26:42.388710+00:00", "meta": {"OBJECT_NAME": "GPS BIIF-12 (PRN 32)", "OBJECT_ID": "2016-007A", "EPOCH": "2025-12-25T20:32:16.174464", "MEAN_MOTION": 2.00559967, "ECCENTRICITY": 0.00928247, "INCLINATION": 55.4133, "RA_OF_ASC_NODE": 96.3364, "ARG_OF_PERICENTER": 243.9276, "MEAN_ANOMALY": 115.1304, "EPHEMERIS_TYPE": 0, "CLASSIFICATION_TYPE": "U", "NORAD_CAT_ID": 41328, "ELEMENT_SET_NO": 999, "REV_AT_EPOCH": 7236, "BSTAR": 0, "MEAN_MOTION_DOT": 1.1e-07, "MEAN_MOTION_DDOT": 0}, "tle": {"line1": "1 41328U 16007A   25359.85574276  .00000011  00000+0  00000+0 0  9990", "line2": "2 41328  55.4133  96.3364 0092824 243.9276 115.1304  2.00559967 72366"}}, "geometry": {"type": "Point", "coordinates": [-176.99143215714946, 55.387719416439595]}}, {"type": "Feature", "properties": {"norad_id": 43873, "name": "GPS BIII-1  (PRN 04)", "group": "gps-ops", "lat": -13.89706420238233, "lon": 89.2311978409226, "alt_km": 20269.34241503365, "timestamp": "2025-12-26T23:26:42.388725+00:00", "meta": {"OBJECT_NAME": "GPS BIII-1  (PRN 04)", "OBJECT_ID": "2018-109A", "EPOCH": "2025-12-26T12:23:38.434848", "MEAN_MOTION": 2.00553927, "ECCENTRICITY": 0.0037609, "INCLINATION": 55.5742, "RA_OF_ASC_NODE": 99.0034, "ARG_OF_PERICENTER": 195.6344, "MEAN_ANOMALY": 174.7569, "EPHEMERIS_TYPE": 0, "CLASSIFICATION_TYPE": "U", "NORAD_CAT_ID": 43873, "ELEMENT_SET_NO": 999, "REV_AT_EPOCH": 5161, "BSTAR": 0, "MEAN_MOTION_DOT": 1.3e-07, "MEAN_MOTION_DDOT": 0}, "tle": {"line1": "1 43873U 18109A   25360.51641707  .00000013  00000+0  00000+0 0  9993", "line2": "2 43873  55.5742  99.0034 0037609 195.6344 174.7569  2.00553927 51612"}}, "geometry": {"type": "Point", "coordinates": [89.2311978409226, -13.89706420238233]}}, {"type": "Feature", "properties": {"norad_id": 44506, "name": "GPS BIII-2  (PRN 18)", "group": "gps-ops", "lat": -46.20926136692323, "lon": -156.67826245280557, "alt_km": 20073.37470221311, "timestamp": "2025-12-26T23:26:42.388755+00:00", "meta": {"OBJECT_NAME": "GPS BIII-2  (PRN 18)", "OBJECT_ID": "2019-056A", "EPOCH": "2025-12-26T09:10:29.112096", "MEAN_MOTION": 2.0056647, "ECCENTRICITY": 0.0057775, "INCLINATION": 55.7163, "RA_OF_ASC_NODE": 338.0118, "ARG_OF_PERICENTER": 198.6779, "MEAN_ANOMALY": 332.4115, "EPHEMERIS_TYPE": 0, "CLASSIFICATION_TYPE": "U", "NORAD_CAT_ID": 44506, "ELEMENT_SET_NO": 999, "REV_AT_EPOCH": 4660, "BSTAR": 0, "MEAN_MOTION_DOT": -5.8e-07, "MEAN_MOTION_DDOT": 0}, "tle": {"line1": "1 44506U 19056A   25360.38228139 -.00000058  00000+0  00000+0 0  9994", "line2": "2 44506  55.7163 338.0118 0057775 198.6779 332.4115  2.00566470 46605"}}, "geometry": {"type": "Point", "coordinates": [-156.67826245280557, -46.20926136692323]}}, {"type": "Feature", "properties": {"norad_id": 45854, "name": "GPS BIII-3  (PRN 23)", "group": "gps-ops", "lat": -3.332254767947289, "lon": -142.15021882968801, "alt_km": 20031.523706935346, "timestamp": "2025-12-26T23:26:42.388778+00:00", "meta": {"OBJECT_NAME": "GPS BIII-3  (PRN 23)", "OBJECT_ID": "2020-041A", "EPOCH": "2025-12-26T05:40:05.983968", "MEAN_MOTION": 2.00561528, "ECCENTRICITY": 0.00606816, "INCLINATION": 56.556, "RA_OF_ASC_NODE": 35.6606, "ARG_OF_PERICENTER": 203.8008, "MEAN_ANOMALY": 165.623, "EPHEMERIS_TYPE": 0, "CLASSIFICATION_TYPE": "U", "NORAD_CAT_ID": 45854, "ELEMENT_SET_NO": 999, "REV_AT_EPOCH": 4057, "BSTAR": 0, "MEAN_MOTION_DOT": -5e-07, "MEAN_MOTION_DDOT": 0}, "tle": {"line1": "1 45854U 20041A   25360.23618037 -.00000050  00000+0  00000+0 0  9993", "line2": "2 45854  56.5560  35.6606 0060681 203.8008 165.6230  2.00561528 40571"}}, "geometry": {"type": "Point", "coordinates": [-142.15021882968801, -3.332254767947289]}}, {"type": "Feature", "properties": {"norad_id": 46826, "name": "GPS BIII-4  (PRN 14)", "group": "gps-ops", "lat": 19.966679544262792, "lon": 22.467796826339995, "alt_km": 20065.142765281365, "timestamp": "2025-12-26T23:26:42.388789+00:00", "meta": {"OBJECT_NAME": "GPS BIII-4  (PRN 14)", "OBJECT_ID": "2020-078A", "EPOCH": "2025-12-16T01:06:13.902336", "MEAN_MOTION": 2.00566891, "ECCENTRICITY": 0.0064754, "INCLINATION": 54.0144, "RA_OF_ASC_NODE": 218.2068, "ARG_OF_PERICENTER": 203.3802, "MEAN_ANOMALY": 339.3962, "EPHEMERIS_TYPE": 0, "CLASSIFICATION_TYPE": "U", "NORAD_CAT_ID": 46826, "ELEMENT_SET_NO": 999, "REV_AT_EPOCH": 3783, "BSTAR": 0, "MEAN_MOTION_DOT": 6.7e-07, "MEAN_MOTION_DDOT": 0}, "tle": {"line1": "1 46826U 20078A   25350.04599424  .00000067  00000+0  00000+0 0  9996", "line2": "2 46826  54.0144 218.2068 0064754 203.3802 339.3962  2.00566891 37830"}}, "geometry": {"type": "Point", "coordinates": [22.467796826339995, 19.966679544262792]}}, {"type": "Feature", "properties": {"norad_id": 48859, "name": "GPS BIII-5  (PRN 11)", "group": "gps-ops", "lat": -15.96603714288943, "lon": -32.08061888530738, "alt_km": 20203.899663564833, "timestamp": "2025-12-26T23:26:42.388800+00:00", "meta": {"OBJECT_NAME": "GPS BIII-5  (PRN 11)", "OBJECT_ID": "2021-054A", "EPOCH": "2025-12-08T04:14:32.423424", "MEAN_MOTION": 2.00553627, "ECCENTRICITY": 0.0024678, "INCLINATION": 55.2581, "RA_OF_ASC_NODE": 340.1367, "ARG_OF_PERICENTER": 233.3993, "MEAN_ANOMALY": 212.8594, "EPHEMERIS_TYPE": 0, "CLASSIFICATION_TYPE": "U", "NORAD_CAT_ID": 48859, "ELEMENT_SET_NO": 999, "REV_AT_EPOCH": 3292, "BSTAR": 0, "MEAN_MOTION_DOT": -8.6e-07, "MEAN_MOTION_DDOT": 0}, "tle": {"line1": "1 48859U 21054A   25342.17676416 -.00000086  00000+0  00000+0 0  9993", "line2": "2 48859  55.2581 340.1367 0024678 233.3993 212.8594  2.00553627 32922"}}, "geometry": {"type": "Point", "coordinates": [-32.08061888530738, -15.96603714288943]}}, {"type": "Feature", "properties": {"norad_id": 55268, "name": "GPS BIII-6  (PRN 28)", "group": "gps-ops", "lat": 18.49024571564696, "lon": 168.77271083929614, "alt_km": 20172.046002606334, "timestamp": "2025-12-26T23:26:42.388812+00:00", "meta": {"OBJECT_NAME": "GPS BIII-6  (PRN 28)", "OBJECT_ID": "2023-009A", "EPOCH": "2025-12-22T10:59:58.065216", "MEAN_MOTION": 2.00554901, "ECCENTRICITY": 0.00037047, "INCLINATION": 55.1065, "RA_OF_ASC_NODE": 155.4638, "ARG_OF_PERICENTER": 355.7912, "MEAN_ANOMALY": 4.4255, "EPHEMERIS_TYPE": 0, "CLASSIFICATION_TYPE": "U", "NORAD_CAT_ID": 55268, "ELEMENT_SET_NO": 999, "REV_AT_EPOCH": 2170, "BSTAR": 0, "MEAN_MOTION_DOT": 7.4e-07, "MEAN_MOTION_DDOT": 0}, "tle": {"line1": "1 55268U 23009A   25356.45831094  .00000074  00000+0  00000+0 0  9994", "line2": "2 55268  55.1065 155.4638 0003704 355.7912   4.4255  2.00554901 21704"}}, "geometry": {"type": "Point", "coordinates": [168.77271083929614, 18.49024571564696]}}]}